ONEWEB-0349             
1 49281U 21090C   25103.15644591  .00000086  00000+0  18032-3 0  9992
2 49281  87.9327   0.0598 0001897  78.1132 282.0214 13.20773890174350
ONEWEB-0353             
1 49282U 21090D   25102.68850732 -.00000009  00000+0 -58830-4 0  9994
2 49282  87.9096  15.3239 0001940  70.2362 289.8977 13.14504229171025
ONEWEB-0356             
1 49283U 21090E   25103.15487089  .00000049  00000+0  89183-4 0  9996
2 49283  87.9327   0.0518 0002751  87.6453 272.4995 13.20773993174358
ONEWEB-0358             
1 49284U 21090F   25102.95759841  .00000100  00000+0  21317-3 0  9994
2 49284  87.9327   0.0804 0001923  85.3408 274.7945 13.20772039173766
ONEWEB-0359             
1 49285U 21090G   25103.18171475  .00000091  00000+0  19245-3 0  9998
2 49285  87.9325   0.0493 0001684  92.3988 267.7339 13.20771694175053
ONEWEB-0360             
1 49286U 21090H   25102.94497347  .00000089  00000+0  18755-3 0  9993
2 49286  87.9327   0.1020 0001757  83.9297 276.2036 13.20771861173056
ONEWEB-0361             
1 49287U 21090J   25103.15330251  .00000095  00000+0  20212-3 0  9996
2 49287  87.9324   0.0558 0002016  81.8567 278.2795 13.20769505174366
ONEWEB-0362             
1 49288U 21090K   25102.53784655  .00000014  00000+0  38143-5 0  9994
2 49288  87.9257  30.5851 0001695  76.9821 283.1501 13.19724843170119
